[{"OBJECT_NAME":"NOAA 18","OBJECT_ID":"2005-018A","EPOCH":"2026-03-12T19:08:21.497856","MEAN_MOTION":14.13711609,"ECCENTRICITY":0.0015225,"INCLINATION":98.8151,"RA_OF_ASC_NODE":152.8611,"ARG_OF_PERICENTER":67.3226,"MEAN_ANOMALY":292.9554,"EPHEMERIS_TYPE":0,"CLASSIFICATION_TYPE":"U","NORAD_CAT_ID":28654,"ELEMENT_SET_NO":999,"REV_AT_EPOCH":7269,"BSTAR":5.5876e-5,"MEAN_MOTION_DOT":6.2e-7,"MEAN_MOTION_DDOT":0},{"OBJECT_NAME":"NOAA 19","OBJECT_ID":"2009-005A","EPOCH":"2026-03-12T18:42:03.512448","MEAN_MOTION":14.13457555,"ECCENTRICITY":0.0012779,"INCLINATION":98.9601,"RA_OF_ASC_NODE":142.5553,"ARG_OF_PERICENTER":305.2936,"MEAN_ANOMALY":54.704,"EPHEMERIS_TYPE":0,"CLASSIFICATION_TYPE":"U","NORAD_CAT_ID":33591,"ELEMENT_SET_NO":999,"REV_AT_EPOCH":88086,"BSTAR":5.9757e-5,"MEAN_MOTION_DOT":6.7e-7,"MEAN_MOTION_DDOT":0},{"OBJECT_NAME":"SUOMI NPP","OBJECT_ID":"2011-061A","EPOCH":"2026-03-12T20:16:10.478208","MEAN_MOTION":14.19544539,"ECCENTRICITY":6.09e-5,"INCLINATION":98.7872,"RA_OF_ASC_NODE":13.4222,"ARG_OF_PERICENTER":206.26,"MEAN_ANOMALY":153.8545,"EPHEMERIS_TYPE":0,"CLASSIFICATION_TYPE":"U","NORAD_CAT_ID":37849,"ELEMENT_SET_NO":999,"REV_AT_EPOCH":74477,"BSTAR":6.3999e-5,"MEAN_MOTION_DOT":9.1e-7,"MEAN_MOTION_DDOT":0},{"OBJECT_NAME":"NOAA 20 (JPSS-1)","OBJECT_ID":"2017-073A","EPOCH":"2026-03-12T18:55:49.894752","MEAN_MOTION":14.19537016,"ECCENTRICITY":0.0001338,"INCLINATION":98.7693,"RA_OF_ASC_NODE":12.1451,"ARG_OF_PERICENTER":133.4648,"MEAN_ANOMALY":226.6639,"EPHEMERIS_TYPE":0,"CLASSIFICATION_TYPE":"U","NORAD_CAT_ID":43013,"ELEMENT_SET_NO":999,"REV_AT_EPOCH":43079,"BSTAR":6.6813e-5,"MEAN_MOTION_DOT":9.7e-7,"MEAN_MOTION_DDOT":0}]
