NOAA 18                 
1 28654U 05018A   26071.79747104  .00000062  00000+0  55876-4 0  9996
2 28654  98.8151 152.8611 0015225  67.3226 292.9554 14.13711609 72697
NOAA 19                 
1 33591U 09005A   26071.77920732  .00000067  00000+0  59757-4 0  9997
2 33591  98.9601 142.5553 0012779 305.2936  54.7040 14.13457555880865
SUOMI NPP               
1 37849U 11061A   26071.84456572  .00000091  00000+0  63999-4 0  9996
2 37849  98.7872  13.4222 0000609 206.2600 153.8545 14.19544539744774
NOAA 20 (JPSS-1)        
1 43013U 17073A   26071.78877193  .00000097  00000+0  66813-4 0  9998
2 43013  98.7693  12.1451 0001338 133.4648 226.6639 14.19537016430797
